GLOBAL-33               
1 66554U 25267A   25342.55529970  .00018392  00000+0  59832-3 0  9998
2 66554  42.0201  81.1482 0004793  22.7031 337.4018 15.31498164  2762
ELECTRON KICK STAGE R/B 
1 66555U 25267B   25343.26332319  .00031697  00000+0  99007-3 0  9998
2 66555  42.0196  76.9385 0006787  26.0094 334.1083 15.32547454  2877
STARLINK-35699          
1 66557U 25268A   25343.25002315  .00095038  00000+0  16124-2 0  9997
2 66557  43.0006 141.6060 0001095 270.0276 125.4670 15.50470436  4106
STARLINK-35695          
1 66558U 25268B   25343.25002315  .00083520  00000+0  14194-2 0  9996
2 66558  43.0005 141.6011 0001205 271.9836 125.4177 15.50478965  4104
STARLINK-35419          
1 66559U 25268C   25343.25002315 -.00074787  00000+0 -12803-2 0  9999
2 66559  43.0005 141.5970 0002192 262.9882 136.3310 15.50594606  4106
STARLINK-35411          
1 66560U 25268D   25343.25002315  .00011267  00000+0  19783-3 0  9998
2 66560  43.0004 141.5931 0002133 263.5698 137.6838 15.50547124  4103
STARLINK-35305          
1 66561U 25268E   25343.25002315 -.00072386  00000+0 -12388-2 0  9993
2 66561  43.0006 141.5828 0002103 265.5478 139.5243 15.50592933  4059
STARLINK-35579          
1 66562U 25268F   25343.25002315 -.00023762  00000+0 -40068-3 0  9995
2 66562  43.0004 141.5876 0002124 261.1528 142.0175 15.50559791  4106
STARLINK-35437          
1 66563U 25268G   25343.25002315  .00012361  00000+0  21641-3 0  9993
2 66563  43.0005 141.5778 0002116 262.6543 144.3514 15.50548407  4107
STARLINK-35358          
1 66564U 25268H   25343.25002315 -.00082783  00000+0 -14191-2 0  9992
2 66564  43.0008 141.5730 0002111 264.6137 144.2903 15.50598786  4055
STARLINK-35893          
1 66565U 25268J   25343.25002315 -.00075726  00000+0 -12967-2 0  9991
2 66565  43.0009 141.5678 0002172 264.0752 146.7484 15.50594381  4106
STARLINK-35871          
1 66566U 25268K   25343.25002315 -.00051758  00000+0 -88233-3 0  9991
2 66566  43.0007 141.5633 0002131 260.7880 151.9638 15.50574736  4107
