CCSDS_OMM_VERS = 2.0
CREATION_DATE  = 
ORIGINATOR     = 

OBJECT_NAME    = GLOBAL-33
OBJECT_ID      = 2025-267A
CENTER_NAME    = EARTH
REF_FRAME      = TEME
TIME_SYSTEM    = UTC
MEAN_ELEMENT_THEORY = SGP/SGP4

EPOCH          = 2025-12-08T13:19:37.894080
MEAN_MOTION    = 15.31498164
ECCENTRICITY   = .00047931
INCLINATION    = 42.0201
RA_OF_ASC_NODE = 81.1482
ARG_OF_PERICENTER = 22.7031
MEAN_ANOMALY   = 337.4018

EPHEMERIS_TYPE = 0
CLASSIFICATION_TYPE = U
NORAD_CAT_ID   = 66554
ELEMENT_SET_NO = 999
REV_AT_EPOCH   = 276
BSTAR          = .59832068E-3
MEAN_MOTION_DOT = .18392E-3
MEAN_MOTION_DDOT = 0

CCSDS_OMM_VERS = 2.0
CREATION_DATE  = 
ORIGINATOR     = 

OBJECT_NAME    = ELECTRON KICK STAGE R/B
OBJECT_ID      = 2025-267B
CENTER_NAME    = EARTH
REF_FRAME      = TEME
TIME_SYSTEM    = UTC
MEAN_ELEMENT_THEORY = SGP/SGP4

EPOCH          = 2025-12-09T06:19:11.123616
MEAN_MOTION    = 15.32547454
ECCENTRICITY   = .00067878
INCLINATION    = 42.0196
RA_OF_ASC_NODE = 76.9385
ARG_OF_PERICENTER = 26.0094
MEAN_ANOMALY   = 334.1083

EPHEMERIS_TYPE = 0
CLASSIFICATION_TYPE = U
NORAD_CAT_ID   = 66555
ELEMENT_SET_NO = 999
REV_AT_EPOCH   = 287
BSTAR          = .99006824E-3
MEAN_MOTION_DOT = .31697E-3
MEAN_MOTION_DDOT = 0

CCSDS_OMM_VERS = 2.0
CREATION_DATE  = 
ORIGINATOR     = 

OBJECT_NAME    = STARLINK-35699
OBJECT_ID      = 2025-268A
CENTER_NAME    = EARTH
REF_FRAME      = TEME
TIME_SYSTEM    = UTC
MEAN_ELEMENT_THEORY = SGP/SGP4

EPOCH          = 2025-12-09T06:00:02.000160
MEAN_MOTION    = 15.50470436
ECCENTRICITY   = .00010952
INCLINATION    = 43.0006
RA_OF_ASC_NODE = 141.6060
ARG_OF_PERICENTER = 270.0276
MEAN_ANOMALY   = 125.4670

EPHEMERIS_TYPE = 0
CLASSIFICATION_TYPE = U
NORAD_CAT_ID   = 66557
ELEMENT_SET_NO = 999
REV_AT_EPOCH   = 410
BSTAR          = .16124283E-2
MEAN_MOTION_DOT = .95038E-3
MEAN_MOTION_DDOT = 0

CCSDS_OMM_VERS = 2.0
CREATION_DATE  = 
ORIGINATOR     = 

OBJECT_NAME    = STARLINK-35695
OBJECT_ID      = 2025-268B
CENTER_NAME    = EARTH
REF_FRAME      = TEME
TIME_SYSTEM    = UTC
MEAN_ELEMENT_THEORY = SGP/SGP4

EPOCH          = 2025-12-09T06:00:02.000160
MEAN_MOTION    = 15.50478965
ECCENTRICITY   = .00012053
INCLINATION    = 43.0005
RA_OF_ASC_NODE = 141.6011
ARG_OF_PERICENTER = 271.9836
MEAN_ANOMALY   = 125.4177

EPHEMERIS_TYPE = 0
CLASSIFICATION_TYPE = U
NORAD_CAT_ID   = 66558
ELEMENT_SET_NO = 999
REV_AT_EPOCH   = 410
BSTAR          = .14193641E-2
MEAN_MOTION_DOT = .8352E-3
MEAN_MOTION_DDOT = 0

CCSDS_OMM_VERS = 2.0
CREATION_DATE  = 
ORIGINATOR     = 

OBJECT_NAME    = STARLINK-35419
OBJECT_ID      = 2025-268C
CENTER_NAME    = EARTH
REF_FRAME      = TEME
TIME_SYSTEM    = UTC
MEAN_ELEMENT_THEORY = SGP/SGP4

EPOCH          = 2025-12-09T06:00:02.000160
MEAN_MOTION    = 15.50594606
ECCENTRICITY   = .00021925
INCLINATION    = 43.0005
RA_OF_ASC_NODE = 141.5970
ARG_OF_PERICENTER = 262.9882
MEAN_ANOMALY   = 136.3310

EPHEMERIS_TYPE = 0
CLASSIFICATION_TYPE = U
NORAD_CAT_ID   = 66559
ELEMENT_SET_NO = 999
REV_AT_EPOCH   = 410
BSTAR          = -.1280334E-2
MEAN_MOTION_DOT = -.74787E-3
MEAN_MOTION_DDOT = 0

CCSDS_OMM_VERS = 2.0
CREATION_DATE  = 
ORIGINATOR     = 

OBJECT_NAME    = STARLINK-35411
OBJECT_ID      = 2025-268D
CENTER_NAME    = EARTH
REF_FRAME      = TEME
TIME_SYSTEM    = UTC
MEAN_ELEMENT_THEORY = SGP/SGP4

EPOCH          = 2025-12-09T06:00:02.000160
MEAN_MOTION    = 15.50547124
ECCENTRICITY   = .00021336
INCLINATION    = 43.0004
RA_OF_ASC_NODE = 141.5931
ARG_OF_PERICENTER = 263.5698
MEAN_ANOMALY   = 137.6838

EPHEMERIS_TYPE = 0
CLASSIFICATION_TYPE = U
NORAD_CAT_ID   = 66560
ELEMENT_SET_NO = 999
REV_AT_EPOCH   = 410
BSTAR          = .19782566E-3
MEAN_MOTION_DOT = .11267E-3
MEAN_MOTION_DDOT = 0

CCSDS_OMM_VERS = 2.0
CREATION_DATE  = 
ORIGINATOR     = 

OBJECT_NAME    = STARLINK-35305
OBJECT_ID      = 2025-268E
CENTER_NAME    = EARTH
REF_FRAME      = TEME
TIME_SYSTEM    = UTC
MEAN_ELEMENT_THEORY = SGP/SGP4

EPOCH          = 2025-12-09T06:00:02.000160
MEAN_MOTION    = 15.50592933
ECCENTRICITY   = .00021039
INCLINATION    = 43.0006
RA_OF_ASC_NODE = 141.5828
ARG_OF_PERICENTER = 265.5478
MEAN_ANOMALY   = 139.5243

EPHEMERIS_TYPE = 0
CLASSIFICATION_TYPE = U
NORAD_CAT_ID   = 66561
ELEMENT_SET_NO = 999
REV_AT_EPOCH   = 405
BSTAR          = -.1238764E-2
MEAN_MOTION_DOT = -.72386E-3
MEAN_MOTION_DDOT = 0

CCSDS_OMM_VERS = 2.0
CREATION_DATE  = 
ORIGINATOR     = 

OBJECT_NAME    = STARLINK-35579
OBJECT_ID      = 2025-268F
CENTER_NAME    = EARTH
REF_FRAME      = TEME
TIME_SYSTEM    = UTC
MEAN_ELEMENT_THEORY = SGP/SGP4

EPOCH          = 2025-12-09T06:00:02.000160
MEAN_MOTION    = 15.50559791
ECCENTRICITY   = .00021241
INCLINATION    = 43.0004
RA_OF_ASC_NODE = 141.5876
ARG_OF_PERICENTER = 261.1528
MEAN_ANOMALY   = 142.0175

EPHEMERIS_TYPE = 0
CLASSIFICATION_TYPE = U
NORAD_CAT_ID   = 66562
ELEMENT_SET_NO = 999
REV_AT_EPOCH   = 410
BSTAR          = -.40068248E-3
MEAN_MOTION_DOT = -.23762E-3
MEAN_MOTION_DDOT = 0

CCSDS_OMM_VERS = 2.0
CREATION_DATE  = 
ORIGINATOR     = 

OBJECT_NAME    = STARLINK-35437
OBJECT_ID      = 2025-268G
CENTER_NAME    = EARTH
REF_FRAME      = TEME
TIME_SYSTEM    = UTC
MEAN_ELEMENT_THEORY = SGP/SGP4

EPOCH          = 2025-12-09T06:00:02.000160
MEAN_MOTION    = 15.50548407
ECCENTRICITY   = .00021166
INCLINATION    = 43.0005
RA_OF_ASC_NODE = 141.5778
ARG_OF_PERICENTER = 262.6543
MEAN_ANOMALY   = 144.3514

EPHEMERIS_TYPE = 0
CLASSIFICATION_TYPE = U
NORAD_CAT_ID   = 66563
ELEMENT_SET_NO = 999
REV_AT_EPOCH   = 410
BSTAR          = .21641174E-3
MEAN_MOTION_DOT = .12361E-3
MEAN_MOTION_DDOT = 0

CCSDS_OMM_VERS = 2.0
CREATION_DATE  = 
ORIGINATOR     = 

OBJECT_NAME    = STARLINK-35358
OBJECT_ID      = 2025-268H
CENTER_NAME    = EARTH
REF_FRAME      = TEME
TIME_SYSTEM    = UTC
MEAN_ELEMENT_THEORY = SGP/SGP4

EPOCH          = 2025-12-09T06:00:02.000160
MEAN_MOTION    = 15.50598786
ECCENTRICITY   = .00021119
INCLINATION    = 43.0008
RA_OF_ASC_NODE = 141.5730
ARG_OF_PERICENTER = 264.6137
MEAN_ANOMALY   = 144.2903

EPHEMERIS_TYPE = 0
CLASSIFICATION_TYPE = U
NORAD_CAT_ID   = 66564
ELEMENT_SET_NO = 999
REV_AT_EPOCH   = 405
BSTAR          = -.14191048E-2
MEAN_MOTION_DOT = -.82783E-3
MEAN_MOTION_DDOT = 0

CCSDS_OMM_VERS = 2.0
CREATION_DATE  = 
ORIGINATOR     = 

OBJECT_NAME    = STARLINK-35893
OBJECT_ID      = 2025-268J
CENTER_NAME    = EARTH
REF_FRAME      = TEME
TIME_SYSTEM    = UTC
MEAN_ELEMENT_THEORY = SGP/SGP4

EPOCH          = 2025-12-09T06:00:02.000160
MEAN_MOTION    = 15.50594381
ECCENTRICITY   = .00021725
INCLINATION    = 43.0009
RA_OF_ASC_NODE = 141.5678
ARG_OF_PERICENTER = 264.0752
MEAN_ANOMALY   = 146.7484

EPHEMERIS_TYPE = 0
CLASSIFICATION_TYPE = U
NORAD_CAT_ID   = 66565
ELEMENT_SET_NO = 999
REV_AT_EPOCH   = 410
BSTAR          = -.12966602E-2
MEAN_MOTION_DOT = -.75726E-3
MEAN_MOTION_DDOT = 0

CCSDS_OMM_VERS = 2.0
CREATION_DATE  = 
ORIGINATOR     = 

OBJECT_NAME    = STARLINK-35871
OBJECT_ID      = 2025-268K
CENTER_NAME    = EARTH
REF_FRAME      = TEME
TIME_SYSTEM    = UTC
MEAN_ELEMENT_THEORY = SGP/SGP4

EPOCH          = 2025-12-09T06:00:02.000160
MEAN_MOTION    = 15.50574736
ECCENTRICITY   = .00021316
INCLINATION    = 43.0007
RA_OF_ASC_NODE = 141.5633
ARG_OF_PERICENTER = 260.7880
MEAN_ANOMALY   = 151.9638

EPHEMERIS_TYPE = 0
CLASSIFICATION_TYPE = U
NORAD_CAT_ID   = 66566
ELEMENT_SET_NO = 999
REV_AT_EPOCH   = 410
BSTAR          = -.88233385E-3
MEAN_MOTION_DOT = -.51758E-3
MEAN_MOTION_DDOT = 0

